[{"OBJECT_NAME":"KINEIS-4B","OBJECT_ID":"2025-056E","EPOCH":"2026-03-09T22:10:37.362720","MEAN_MOTION":14.72310285,"ECCENTRICITY":0.00024844,"INCLINATION":97.9938,"RA_OF_ASC_NODE":195.3416,"ARG_OF_PERICENTER":188.4557,"MEAN_ANOMALY":171.6609,"EPHEMERIS_TYPE":0,"CLASSIFICATION_TYPE":"U","NORAD_CAT_ID":63304,"ELEMENT_SET_NO":999,"REV_AT_EPOCH":5251,"BSTAR":0.00042908696,"MEAN_MOTION_DOT":2.664e-5,"MEAN_MOTION_DDOT":0},{"OBJECT_NAME":"FENGYUN 1C DEB","OBJECT_ID":"1999-025EKP","EPOCH":"2026-03-01T02:01:53.163840","MEAN_MOTION":14.7642252,"ECCENTRICITY":0.00219391,"INCLINATION":99.0484,"RA_OF_ASC_NODE":283.3547,"ARG_OF_PERICENTER":117.4166,"MEAN_ANOMALY":37.3398,"EPHEMERIS_TYPE":0,"CLASSIFICATION_TYPE":"U","NORAD_CAT_ID":37595,"ELEMENT_SET_NO":999,"REV_AT_EPOCH":63759,"BSTAR":0.0046491705,"MEAN_MOTION_DOT":0.00032541,"MEAN_MOTION_DDOT":0}]
